{
  "type": "FeatureCollection",
  "features": [
    {
      "type": "Feature",
      "properties": {
        "norad_id": 66397,
        "name": "STARLINK-35510",
        "group": "last-30-days",
        "lat": -52.38739699232261,
        "lon": -151.86678428418898,
        "alt_km": 452.8121208450402,
        "timestamp": "2025-12-08T08:58:59.555455+00:00",
        "meta_object_name": "STARLINK-35510",
        "meta_object_id": "2025-257T",
        "meta_epoch": "2025-12-08T00:00:04.000320",
        "meta_mean_motion": 15.39600405,
        "meta_eccentricity": 0.00010922,
        "meta_inclination": 53.1598,
        "meta_ra_of_asc_node": 286.5752,
        "meta_arg_of_pericenter": 92.1955,
        "meta_mean_anomaly": 270.4024,
        "meta_ephemeris_type": 0,
        "meta_classification_type": "U",
        "meta_norad_cat_id": 66397,
        "meta_element_set_no": 999,
        "meta_rev_at_epoch": 573,
        "meta_bstar": 0.00031718651,
        "meta_mean_motion_dot": 0.000123,
        "meta_mean_motion_ddot": 0,
        "tle_line1": "1 66397U 25257T   25342.00004630  .00012300  00000+0  31719-3 0  9990",
        "tle_line2": "2 66397  53.1598 286.5752 0001092  92.1955 270.4024 15.39600405  5739"
      },
      "geometry": {
        "type": "Point",
        "coordinates": [
          -151.86678428418898,
          -52.38739699232261
        ]
      }
    },
    {
      "type": "Feature",
      "properties": {
        "norad_id": 66398,
        "name": "STARLINK-35642",
        "group": "last-30-days",
        "lat": -41.71535389118779,
        "lon": -117.17901704551936,
        "alt_km": 452.5258738249122,
        "timestamp": "2025-12-08T08:58:59.555465+00:00",
        "meta_object_name": "STARLINK-35642",
        "meta_object_id": "2025-257U",
        "meta_epoch": "2025-12-08T00:00:04.000320",
        "meta_mean_motion": 15.39530166,
        "meta_eccentricity": 0.00015765,
        "meta_inclination": 53.1598,
        "meta_ra_of_asc_node": 286.5237,
        "meta_arg_of_pericenter": 72.2581,
        "meta_mean_anomaly": 316.1178,
        "meta_ephemeris_type": 0,
        "meta_classification_type": "U",
        "meta_norad_cat_id": 66398,
        "meta_element_set_no": 999,
        "meta_rev_at_epoch": 573,
        "meta_bstar": 0.0012295856,
        "meta_mean_motion_dot": 0.00048954,
        "meta_mean_motion_ddot": 0,
        "tle_line1": "1 66398U 25257U   25342.00004630  .00048954  00000+0  12296-2 0  9993",
        "tle_line2": "2 66398  53.1598 286.5237 0001576  72.2581 316.1178 15.39530166  5733"
      },
      "geometry": {
        "type": "Point",
        "coordinates": [
          -117.17901704551936,
          -41.71535389118779
        ]
      }
    },
    {
      "type": "Feature",
      "properties": {
        "norad_id": 66399,
        "name": "STARLINK-35657",
        "group": "last-30-days",
        "lat": -52.01344823742891,
        "lon": -148.94882524051945,
        "alt_km": 452.7466234270569,
        "timestamp": "2025-12-08T08:58:59.555476+00:00",
        "meta_object_name": "STARLINK-35657",
        "meta_object_id": "2025-257V",
        "meta_epoch": "2025-12-08T00:00:04.000320",
        "meta_mean_motion": 15.39608749,
        "meta_eccentricity": 0.00010956,
        "meta_inclination": 53.1594,
        "meta_ra_of_asc_node": 286.571,
        "meta_arg_of_pericenter": 117.604,
        "meta_mean_anomaly": 246.8114,
        "meta_ephemeris_type": 0,
        "meta_classification_type": "U",
        "meta_norad_cat_id": 66399,
        "meta_element_set_no": 999,
        "meta_rev_at_epoch": 573,
        "meta_bstar": 0.00026961182,
        "meta_mean_motion_dot": 0.00010396,
        "meta_mean_motion_ddot": 0,
        "tle_line1": "1 66399U 25257V   25342.00004630  .00010396  00000+0  26961-3 0  9998",
        "tle_line2": "2 66399  53.1594 286.5710 0001095 117.6040 246.8114 15.39608749  5738"
      },
      "geometry": {
        "type": "Point",
        "coordinates": [
          -148.94882524051945,
          -52.01344823742891
        ]
      }
    },
    {
      "type": "Feature",
      "properties": {
        "norad_id": 66400,
        "name": "STARLINK-35667",
        "group": "last-30-days",
        "lat": -24.282833605648182,
        "lon": -95.06131560956743,
        "alt_km": 447.4658034640197,
        "timestamp": "2025-12-08T08:58:59.555488+00:00",
        "meta_object_name": "STARLINK-35667",
        "meta_object_id": "2025-257W",
        "meta_epoch": "2025-12-08T00:00:04.000320",
        "meta_mean_motion": 15.42372712,
        "meta_eccentricity": 0.00012618,
        "meta_inclination": 53.1594,
        "meta_ra_of_asc_node": 286.4782,
        "meta_arg_of_pericenter": 99.928,
        "meta_mean_anomaly": 310.9779,
        "meta_ephemeris_type": 0,
        "meta_classification_type": "U",
        "meta_norad_cat_id": 66400,
        "meta_element_set_no": 999,
        "meta_rev_at_epoch": 573,
        "meta_bstar": -0.044623162,
        "meta_mean_motion_dot": -0.01767671,
        "meta_mean_motion_ddot": 0,
        "tle_line1": "1 66400U 25257W   25342.00004630 -.01767671  00000+0 -44623-1 0  9992",
        "tle_line2": "2 66400  53.1594 286.4782 0001261  99.9280 310.9779 15.42372712  5734"
      },
      "geometry": {
        "type": "Point",
        "coordinates": [
          -95.06131560956743,
          -24.282833605648182
        ]
      }
    },
    {
      "type": "Feature",
      "properties": {
        "norad_id": 66401,
        "name": "STARLINK-35668",
        "group": "last-30-days",
        "lat": -22.89289902721611,
        "lon": -93.75153989355832,
        "alt_km": 447.36911089062414,
        "timestamp": "2025-12-08T08:58:59.555499+00:00",
        "meta_object_name": "STARLINK-35668",
        "meta_object_id": "2025-257X",
        "meta_epoch": "2025-12-08T00:00:04.000320",
        "meta_mean_motion": 15.42368947,
        "meta_eccentricity": 0.00013296,
        "meta_inclination": 53.1595,
        "meta_ra_of_asc_node": 286.4746,
        "meta_arg_of_pericenter": 96.5186,
        "meta_mean_anomaly": 316.2416,
        "meta_ephemeris_type": 0,
        "meta_classification_type": "U",
        "meta_norad_cat_id": 66401,
        "meta_element_set_no": 999,
        "meta_rev_at_epoch": 573,
        "meta_bstar": -0.044988805,
        "meta_mean_motion_dot": -0.01780593,
        "meta_mean_motion_ddot": 0,
        "tle_line1": "1 66401U 25257X   25342.00004630 -.01780593  00000+0 -44989-1 0  9996",
        "tle_line2": "2 66401  53.1595 286.4746 0001329  96.5186 316.2416 15.42368947  5731"
      },
      "geometry": {
        "type": "Point",
        "coordinates": [
          -93.75153989355832,
          -22.89289902721611
        ]
      }
    },
    {
      "type": "Feature",
      "properties": {
        "norad_id": 66402,
        "name": "STARLINK-35644",
        "group": "last-30-days",
        "lat": -40.568438501435125,
        "lon": -115.17634451586524,
        "alt_km": 452.6784600465162,
        "timestamp": "2025-12-08T08:58:59.555509+00:00",
        "meta_object_name": "STARLINK-35644",
        "meta_object_id": "2025-257Y",
        "meta_epoch": "2025-12-08T00:00:04.000320",
        "meta_mean_motion": 15.39576638,
        "meta_eccentricity": 0.00015155,
        "meta_inclination": 53.1599,
        "meta_ra_of_asc_node": 286.519,
        "meta_arg_of_pericenter": 102.9782,
        "meta_mean_anomaly": 287.2416,
        "meta_ephemeris_type": 0,
        "meta_classification_type": "U",
        "meta_norad_cat_id": 66402,
        "meta_element_set_no": 999,
        "meta_rev_at_epoch": 573,
        "meta_bstar": 0.00054456209,
        "meta_mean_motion_dot": 0.00021413,
        "meta_mean_motion_ddot": 0,
        "tle_line1": "1 66402U 25257Y   25342.00004630  .00021413  00000+0  54456-3 0  9995",
        "tle_line2": "2 66402  53.1599 286.5190 0001515 102.9782 287.2416 15.39576638  5732"
      },
      "geometry": {
        "type": "Point",
        "coordinates": [
          -115.17634451586524,
          -40.568438501435125
        ]
      }
    },
    {
      "type": "Feature",
      "properties": {
        "norad_id": 66403,
        "name": "STARLINK-35602",
        "group": "last-30-days",
        "lat": -8.818135593019402,
        "lon": -82.01018302033293,
        "alt_km": 437.67173594820724,
        "timestamp": "2025-12-08T08:58:59.555520+00:00",
        "meta_object_name": "STARLINK-35602",
        "meta_object_id": "2025-257Z",
        "meta_epoch": "2025-12-08T00:00:04.000320",
        "meta_mean_motion": 15.45288886,
        "meta_eccentricity": 9.062e-05,
        "meta_inclination": 53.1597,
        "meta_ra_of_asc_node": 286.4457,
        "meta_arg_of_pericenter": 104.9233,
        "meta_mean_anomaly": 322.0995,
        "meta_ephemeris_type": 0,
        "meta_classification_type": "U",
        "meta_norad_cat_id": 66403,
        "meta_element_set_no": 999,
        "meta_rev_at_epoch": 573,
        "meta_bstar": -0.047123545,
        "meta_mean_motion_dot": -0.0202987,
        "meta_mean_motion_ddot": 0,
        "tle_line1": "1 66403U 25257Z   25342.00004630 -.02029870  00000+0 -47124-1 0  9997",
        "tle_line2": "2 66403  53.1597 286.4457 0000906 104.9233 322.0995 15.45288886  5734"
      },
      "geometry": {
        "type": "Point",
        "coordinates": [
          -82.01018302033293,
          -8.818135593019402
        ]
      }
    }
  ]
}